CTC2_L_00318001-01
1 17096U 23619LD  26037.47793981  .00000000  00000+0  00000-0 0  9999
2 17096  70.0000   0.0000 0000000   0.0000   0.0000 13.69880581    12
CTC2_L_00318001-02
1 17097U 26388RG  26037.47793981  .00000000  00000+0  00000-0 0  9996
2 17097  70.0000   0.0000 0000000   0.0000  90.0000 13.69880581    12
CTC2_L_00318001-03
1 17098U 25017B   26037.47793981  .00000000  00000+0  00000-0 0  9995
2 17098  70.0000   0.0000 0000000   0.0000 180.0000 13.69880581    13
CTC2_L_00318001-04
1 17099U 24586WQ  26037.47793981  .00000000  00000+0  00000-0 0  9996
2 17099  70.0000   0.0000 0000000   0.0000 270.0000 13.69880581    14
CTC2_L_00318002-01
1 17100U 22943GH  26037.47793981  .00000000  00000+0  00000-0 0  9994
2 17100  70.0000  12.0000 0000000   0.0000  12.0000 13.69880581    14
CTC2_L_00318002-02
1 17101U 26514WM  26037.47793981  .00000000  00000+0  00000-0 0  9993
2 17101  70.0000  12.0000 0000000   0.0000 102.0000 13.69880581    15
CTC2_L_00318002-03
1 17102U 24957YT  26037.47793981  .00000000  00000+0  00000-0 0  9993
2 17102  70.0000  12.0000 0000000   0.0000 192.0000 13.69880581    15
CTC2_L_00318002-04
1 17103U 26438CY  26037.47793981  .00000000  00000+0  00000-0 0  9990
2 17103  70.0000  12.0000 0000000   0.0000 282.0000 13.69880581    16
CTC2_L_00318003-01
1 17104U 24122TR  26037.47793981  .00000000  00000+0  00000-0 0  9999
2 17104  70.0000  24.0000 0000000   0.0000  24.0000 13.69880581    14
CTC2_L_00318003-02
1 17105U 25232OV  26037.47793981  .00000000  00000+0  00000-0 0  9993
2 17105  70.0000  24.0000 0000000   0.0000 114.0000 13.69880581    15
CTC2_L_00318003-03
1 17106U 26118LP  26037.47793981  .00000000  00000+0  00000-0 0  9998
2 17106  70.0000  24.0000 0000000   0.0000 204.0000 13.69880581    16
CTC2_L_00318003-04
1 17107U 25393RD  26037.47793981  .00000000  00000+0  00000-0 0  9993
2 17107  70.0000  24.0000 0000000   0.0000 294.0000 13.69880581    16
CTC2_L_00318004-01
1 17108U 26447NS  26037.47793981  .00000000  00000+0  00000-0 0  9995
2 17108  70.0000  36.0000 0000000   0.0000  36.0000 13.69880581    14
CTC2_L_00318004-02
1 17109U 25068BK  26037.47793981  .00000000  00000+0  00000-0 0  9994
2 17109  70.0000  36.0000 0000000   0.0000 126.0000 13.69880581    15
CTC2_L_00318004-03
1 17110U 22930ZD  26037.47793981  .00000000  00000+0  00000-0 0  9991
2 17110  70.0000  36.0000 0000000   0.0000 216.0000 13.69880581    17
CTC2_L_00318004-04
1 17111U 26191WW  26037.47793981  .00000000  00000+0  00000-0 0  9995
2 17111  70.0000  36.0000 0000000   0.0000 306.0000 13.69880581    18
CTC2_L_00318005-01
1 17112U 23605CE  26037.47793981  .00000000  00000+0  00000-0 0  9993
2 17112  70.0000  48.0000 0000000   0.0000  48.0000 13.69880581    15
CTC2_L_00318005-02
1 17113U 25456RA  26037.47793981  .00000000  00000+0  00000-0 0  9990
2 17113  70.0000  48.0000 0000000   0.0000 138.0000 13.69880581    16
CTC2_L_00318005-03
1 17114U 23467CM  26037.47793981  .00000000  00000+0  00000-0 0  9991
2 17114  70.0000  48.0000 0000000   0.0000 228.0000 13.69880581    17
CTC2_L_00318005-04
1 17115U 26237LW  26037.47793981  .00000000  00000+0  00000-0 0  9990
2 17115  70.0000  48.0000 0000000   0.0000 318.0000 13.69880581    18
CTC2_L_00318006-01
1 17116U 23473TH  26037.47793981  .00000000  00000+0  00000-0 0  9990
2 17116  70.0000  60.0000 0000000   0.0000  60.0000 13.69880581    17
CTC2_L_00318006-02
1 17117U 25064GJ  26037.47793981  .00000000  00000+0  00000-0 0  9999
2 17117  70.0000  60.0000 0000000   0.0000 150.0000 13.69880581    18
CTC2_L_00318006-03
1 17118U 22186AZ  26037.47793981  .00000000  00000+0  00000-0 0  9992
2 17118  70.0000  60.0000 0000000   0.0000 240.0000 13.69880581    19
CTC2_L_00318006-04
1 17119U 23615QA  26037.47793981  .00000000  00000+0  00000-0 0  9991
2 17119  70.0000  60.0000 0000000   0.0000 330.0000 13.69880581    10
CTC2_L_00318007-01
1 17120U 25720WG  26037.47793981  .00000000  00000+0  00000-0 0  9992
2 17120  70.0000  72.0000 0000000   0.0000  72.0000 13.69880581    18
CTC2_L_00318007-02
1 17121U 24569XI  26037.47793981  .00000000  00000+0  00000-0 0  9993
2 17121  70.0000  72.0000 0000000   0.0000 162.0000 13.69880581    19
CTC2_L_00318007-03
1 17122U 22029AI  26037.47793981  .00000000  00000+0  00000-0 0  9993
2 17122  70.0000  72.0000 0000000   0.0000 252.0000 13.69880581    10
CTC2_L_00318007-04
1 17123U 24708EQ  26037.47793981  .00000000  00000+0  00000-0 0  9990
2 17123  70.0000  72.0000 0000000   0.0000 342.0000 13.69880581    11
CTC2_L_00318008-01
1 17124U 24045JO  26037.47793981  .00000000  00000+0  00000-0 0  9995
2 17124  70.0000  84.0000 0000000   0.0000  84.0000 13.69880581    18
CTC2_L_00318008-02
1 17125U 25380XR  26037.47793981  .00000000  00000+0  00000-0 0  9999
2 17125  70.0000  84.0000 0000000   0.0000 174.0000 13.69880581    19
CTC2_L_00318008-03
1 17126U 24255OJ  26037.47793981  .00000000  00000+0  00000-0 0  9990
2 17126  70.0000  84.0000 0000000   0.0000 264.0000 13.69880581    10
CTC2_L_00318008-04
1 17127U 26986NQ  26037.47793981  .00000000  00000+0  00000-0 0  9994
2 17127  70.0000  84.0000 0000000   0.0000 354.0000 13.69880581    11
CTC2_L_00318009-01
1 17128U 26921CJ  26037.47793981  .00000000  00000+0  00000-0 0  9994
2 17128  70.0000  96.0000 0000000   0.0000  96.0000 13.69880581    18
CTC2_L_00318009-02
1 17129U 26290HZ  26037.47793981  .00000000  00000+0  00000-0 0  9994
2 17129  70.0000  96.0000 0000000   0.0000 186.0000 13.69880581    19
CTC2_L_00318009-03
1 17130U 22007EK  26037.47793981  .00000000  00000+0  00000-0 0  9998
2 17130  70.0000  96.0000 0000000   0.0000 276.0000 13.69880581    11
CTC2_L_00318009-04
1 17131U 25449XM  26037.47793981  .00000000  00000+0  00000-0 0  9992
2 17131  70.0000  96.0000 0000000   0.0000   6.0000 13.69880581    13
CTC2_L_00318010-01
1 17132U 24961AO  26037.47793981  .00000000  00000+0  00000-0 0  9991
2 17132  70.0000 108.0000 0000000   0.0000 108.0000 13.69880581    11
CTC2_L_00318010-02
1 17133U 22974YR  26037.47793981  .00000000  00000+0  00000-0 0  9994
2 17133  70.0000 108.0000 0000000   0.0000 198.0000 13.69880581    11
CTC2_L_00318010-03
1 17134U 23092AN  26037.47793981  .00000000  00000+0  00000-0 0  9997
2 17134  70.0000 108.0000 0000000   0.0000 288.0000 13.69880581    12
CTC2_L_00318010-04
1 17135U 25809RG  26037.47793981  .00000000  00000+0  00000-0 0  9996
2 17135  70.0000 108.0000 0000000   0.0000  18.0000 13.69880581    14
CTC2_L_00318011-01
1 17136U 23962NV  26037.47793981  .00000000  00000+0  00000-0 0  9995
2 17136  70.0000 120.0000 0000000   0.0000 120.0000 13.69880581    13
CTC2_L_00318011-02
1 17137U 25854AG  26037.47793981  .00000000  00000+0  00000-0 0  9998
2 17137  70.0000 120.0000 0000000   0.0000 210.0000 13.69880581    14
CTC2_L_00318011-03
1 17138U 24171UY  26037.47793981  .00000000  00000+0  00000-0 0  9990
2 17138  70.0000 120.0000 0000000   0.0000 300.0000 13.69880581    15
CTC2_L_00318011-04
1 17139U 24635JO  26037.47793981  .00000000  00000+0  00000-0 0  9996
2 17139  70.0000 120.0000 0000000   0.0000  30.0000 13.69880581    16
CTC2_L_00318012-01
1 17140U 24238GA  26037.47793981  .00000000  00000+0  00000-0 0  9997
2 17140  70.0000 132.0000 0000000   0.0000 132.0000 13.69880581    14
CTC2_L_00318012-02
1 17141U 22067LL  26037.47793981  .00000000  00000+0  00000-0 0  9996
2 17141  70.0000 132.0000 0000000   0.0000 222.0000 13.69880581    15
CTC2_L_00318012-03
1 17142U 23456GF  26037.47793981  .00000000  00000+0  00000-0 0  9990
2 17142  70.0000 132.0000 0000000   0.0000 312.0000 13.69880581    16
CTC2_L_00318012-04
1 17143U 26965ZX  26037.47793981  .00000000  00000+0  00000-0 0  9999
2 17143  70.0000 132.0000 0000000   0.0000  42.0000 13.69880581    17
CTC2_L_00318013-01
1 17144U 24268KQ  26037.47793981  .00000000  00000+0  00000-0 0  9994
2 17144  70.0000 144.0000 0000000   0.0000 144.0000 13.69880581    14
CTC2_L_00318013-02
1 17145U 24888XA  26037.47793981  .00000000  00000+0  00000-0 0  9993
2 17145  70.0000 144.0000 0000000   0.0000 234.0000 13.69880581    15
CTC2_L_00318013-03
1 17146U 22219DL  26037.47793981  .00000000  00000+0  00000-0 0  9990
2 17146  70.0000 144.0000 0000000   0.0000 324.0000 13.69880581    16
CTC2_L_00318013-04
1 17147U 23279JV  26037.47793981  .00000000  00000+0  00000-0 0  9998
2 17147  70.0000 144.0000 0000000   0.0000  54.0000 13.69880581    17
CTC2_L_00318014-01
1 17148U 24056ZQ  26037.47793981  .00000000  00000+0  00000-0 0  9993
2 17148  70.0000 156.0000 0000000   0.0000 156.0000 13.69880581    14
CTC2_L_00318014-02
1 17149U 25616NT  26037.47793981  .00000000  00000+0  00000-0 0  9997
2 17149  70.0000 156.0000 0000000   0.0000 246.0000 13.69880581    15
CTC2_L_00318014-03
1 17150U 25718AL  26037.47793981  .00000000  00000+0  00000-0 0  9992
2 17150  70.0000 156.0000 0000000   0.0000 336.0000 13.69880581    17
CTC2_L_00318014-04
1 17151U 26024CR  26037.47793981  .00000000  00000+0  00000-0 0  9994
2 17151  70.0000 156.0000 0000000   0.0000  66.0000 13.69880581    18
CTC2_L_00318015-01
1 17152U 25430CZ  26037.47793981  .00000000  00000+0  00000-0 0  9995
2 17152  70.0000 168.0000 0000000   0.0000 168.0000 13.69880581    15
CTC2_L_00318015-02
1 17153U 22120NX  26037.47793981  .00000000  00000+0  00000-0 0  9999
2 17153  70.0000 168.0000 0000000   0.0000 258.0000 13.69880581    16
CTC2_L_00318015-03
1 17154U 22630SK  26037.47793981  .00000000  00000+0  00000-0 0  9996
2 17154  70.0000 168.0000 0000000   0.0000 348.0000 13.69880581    17
CTC2_L_00318015-04
1 17155U 25532K   26037.47793981  .00000000  00000+0  00000-0 0  9991
2 17155  70.0000 168.0000 0000000   0.0000  78.0000 13.69880581    18
CTC2_L_00318016-01
1 17156U 25568IH  26037.47793981  .00000000  00000+0  00000-0 0  9991
2 17156  70.0000 180.0000 0000000   0.0000 180.0000 13.69880581    17
CTC2_L_00318016-02
1 17157U 23620XC  26037.47793981  .00000000  00000+0  00000-0 0  9999
2 17157  70.0000 180.0000 0000000   0.0000 270.0000 13.69880581    18
